{
  "norad_id": 63023,
  "name": "STARLINK-32943",
  "history": [
    {
      "epoch": "2026-03-28T17:28:55.747200Z",
      "apogee_km": 483.76802873193174,
      "perigee_km": 482.1674702159753,
      "latitude_deg": 2.1236155431324042e-05,
      "longitude_deg": 139.98984031684265,
      "height_km": 482.931322441374,
      "semi_major_axis_km": 6861.104749473953,
      "eccentricity": 0.00011664,
      "inclination_deg": 43.0002,
      "raan_deg": 228.3668,
      "arg_perigee_deg": 256.4791,
      "mean_anomaly_deg": 103.5931,
      "mean_motion_rev_day": 15.27607167
    },
    {
      "epoch": "2026-03-30T14:59:28.765536Z",
      "apogee_km": 484.24794258929523,
      "perigee_km": 481.7760078365045,
      "latitude_deg": 5.523559407559863e-05,
      "longitude_deg": 164.7731060256381,
      "height_km": 482.776933596925,
      "semi_major_axis_km": 6861.148975212899,
      "eccentricity": 0.00018014,
      "inclination_deg": 43.0008,
      "raan_deg": 217.6566,
      "arg_perigee_deg": 270.5632,
      "mean_anomaly_deg": 89.5014,
      "mean_motion_rev_day": 15.27592397
    },
    {
      "epoch": "2026-03-30T18:07:47.429184Z",
      "apogee_km": 483.9117914467024,
      "perigee_km": 482.0923545873193,
      "latitude_deg": -4.737572107997933e-05,
      "longitude_deg": 116.82883720949857,
      "height_km": 482.7648295453481,
      "semi_major_axis_km": 6861.139073017011,
      "eccentricity": 0.00013259,
      "inclination_deg": 43.0007,
      "raan_deg": 216.9191,
      "arg_perigee_deg": 270.8797,
      "mean_anomaly_deg": 89.1902,
      "mean_motion_rev_day": 15.27595704
    },
    {
      "epoch": "2026-03-31T16:05:58.538688Z",
      "apogee_km": 484.16831656204704,
      "perigee_km": 481.7147948705224,
      "latitude_deg": -3.697553821518939e-06,
      "longitude_deg": 141.20852973276888,
      "height_km": 482.9950387121288,
      "semi_major_axis_km": 6861.078555716284,
      "eccentricity": 0.0001788,
      "inclination_deg": 43.0007,
      "raan_deg": 211.7473,
      "arg_perigee_deg": 256.9756,
      "mean_anomaly_deg": 103.0896,
      "mean_motion_rev_day": 15.27615915
    },
    {
      "epoch": "2026-04-01T14:04:10.487136Z",
      "apogee_km": 483.8940277112606,
      "perigee_km": 482.18285055674005,
      "latitude_deg": -2.7515026712393413e-06,
      "longitude_deg": 165.5892714757654,
      "height_km": 482.69844027084537,
      "semi_major_axis_km": 6861.175439134,
      "eccentricity": 0.0001247,
      "inclination_deg": 43.0016,
      "raan_deg": 206.5801,
      "arg_perigee_deg": 277.8433,
      "mean_anomaly_deg": 82.2277,
      "mean_motion_rev_day": 15.27583559
    },
    {
      "epoch": "2026-04-02T15:10:40.002816Z",
      "apogee_km": 483.88566820427786,
      "perigee_km": 481.9471461746107,
      "latitude_deg": -6.215973643280932e-06,
      "longitude_deg": 142.02722964877563,
      "height_km": 482.62858424192774,
      "semi_major_axis_km": 6861.0534071894435,
      "eccentricity": 0.00014127,
      "inclination_deg": 43.0009,
      "raan_deg": 200.6722,
      "arg_perigee_deg": 273.8238,
      "mean_anomaly_deg": 86.2452,
      "mean_motion_rev_day": 15.27624314
    },
    {
      "epoch": "2026-04-03T06:52:13.369440Z",
      "apogee_km": 483.2406004253053,
      "perigee_km": 482.5682183671843,
      "latitude_deg": -3.17559830174265e-05,
      "longitude_deg": -97.69529721157542,
      "height_km": 482.4224790674229,
      "semi_major_axis_km": 6861.0414093962445,
      "eccentricity": 4.9e-05,
      "inclination_deg": 42.9991,
      "raan_deg": 196.9832,
      "arg_perigee_deg": 320.0135,
      "mean_anomaly_deg": 40.068,
      "mean_motion_rev_day": 15.27628321
    },
    {
      "epoch": "2026-04-04T12:41:12.681600Z",
      "apogee_km": 483.9378400285477,
      "perigee_km": 482.2185567241395,
      "latitude_deg": -1.3095165693350344e-05,
      "longitude_deg": 166.81406899330545,
      "height_km": 482.6487874732952,
      "semi_major_axis_km": 6861.215198376343,
      "eccentricity": 0.00012529,
      "inclination_deg": 43.0014,
      "raan_deg": 189.9642,
      "arg_perigee_deg": 283.875,
      "mean_anomaly_deg": 76.1962,
      "mean_motion_rev_day": 15.27570281
    }
  ]
}